[{"OBJECT_NAME":"RISAT-2BR1","OBJECT_ID":"2019-089F","EPOCH":"2026-03-09T22:23:56.080608","MEAN_MOTION":15.01632497,"ECCENTRICITY":0.00130957,"INCLINATION":36.9618,"RA_OF_ASC_NODE":340.419,"ARG_OF_PERICENTER":88.0635,"MEAN_ANOMALY":272.1607,"EPHEMERIS_TYPE":0,"CLASSIFICATION_TYPE":"U","NORAD_CAT_ID":44857,"ELEMENT_SET_NO":999,"REV_AT_EPOCH":34227,"BSTAR":0.00042406412,"MEAN_MOTION_DOT":5.543e-5,"MEAN_MOTION_DDOT":0},{"OBJECT_NAME":"STARLINK-4390","OBJECT_ID":"2022-105F","EPOCH":"2026-03-09T15:44:45.266208","MEAN_MOTION":15.01279333,"ECCENTRICITY":0.000187,"INCLINATION":97.6025,"RA_OF_ASC_NODE":310.125,"ARG_OF_PERICENTER":49.5076,"MEAN_ANOMALY":310.6311,"EPHEMERIS_TYPE":0,"CLASSIFICATION_TYPE":"U","NORAD_CAT_ID":53653,"ELEMENT_SET_NO":999,"REV_AT_EPOCH":19322,"BSTAR":-0.00023328,"MEAN_MOTION_DOT":-3.055e-5,"MEAN_MOTION_DDOT":0}]
